0 ARIANE 42P+ DEB
1 28280U 92072P   13278.73695551 -.00000346  00000-0 -13928-1 0  1780
2 28280 008.3185 091.8511 6465527 306.3091 012.0345 02.91443588120494
0 ARIANE 42P+ DEB
1 28280U 92072P   13287.25826627 -.00000277  00000-0 -76983-2 0  1792
2 28280 008.3285 087.7373 6464073 314.3237 312.5077 02.91444160120746
